[
    {
        "Altitude(m)": 569029.3491284153,
        "Argument of Periapsis(deg)": 0.026491964442854003,
        "Eccentricity": 0.0,
        "Inclination(deg)": 53.0,
        "Latitude(deg)": -46.07374129386091,
        "Longitude(deg)": -137.1004218440615,
        "Mean Anomaly(deg)": 244.00277147031025,
        "RAAN(deg)": 94.96057347411208,
        "Satellite Name": "Starlink Shell 1 430",
        "Satellite Number": 430,
        "Semi-Major Axis(m)": 6931778.249405717,
        "Time(s)": 760
    },
    {
        "Altitude(m)": 569156.3998139148,
        "Argument of Periapsis(deg)": 0.02684054292236524,
        "Eccentricity": 0.0,
        "Inclination(deg)": 53.0,
        "Latitude(deg)": -46.38505549663696,
        "Longitude(deg)": -136.3599590749024,
        "Mean Anomaly(deg)": 244.62960267386703,
        "RAAN(deg)": 94.9600547040346,
        "Satellite Name": "Starlink Shell 1 430",
        "Satellite Number": 430,
        "Semi-Major Axis(m)": 6931778.249405717,
        "Time(s)": 770
    },
    {
        "Altitude(m)": 569281.0382868606,
        "Argument of Periapsis(deg)": 0.027189121401876473,
        "Eccentricity": 0.0,
        "Inclination(deg)": 53.0,
        "Latitude(deg)": -46.69094483024236,
        "Longitude(deg)": -135.610657178975,
        "Mean Anomaly(deg)": 245.25643387742375,
        "RAAN(deg)": 94.95953593395713,
        "Satellite Name": "Starlink Shell 1 430",
        "Satellite Number": 430,
        "Semi-Major Axis(m)": 6931778.249405717,
        "Time(s)": 780
    },
    {
        "Altitude(m)": 569403.2152670749,
        "Argument of Periapsis(deg)": 0.02753769988138771,
        "Eccentricity": 0.0,
        "Inclination(deg)": 53.0,
        "Latitude(deg)": -46.99129108542047,
        "Longitude(deg)": -134.85248012116912,
        "Mean Anomaly(deg)": 245.88326508098052,
        "RAAN(deg)": 94.95901716387965,
        "Satellite Name": "Starlink Shell 1 430",
        "Satellite Number": 430,
        "Semi-Major Axis(m)": 6931778.249405717,
        "Time(s)": 790
    },
    {
        "Altitude(m)": 569522.8824202564,
        "Argument of Periapsis(deg)": 0.02788627836089895,
        "Eccentricity": 0.0,
        "Inclination(deg)": 53.0,
        "Latitude(deg)": -47.28597495737948,
        "Longitude(deg)": -134.08540113464463,
        "Mean Anomaly(deg)": 246.5100962845372,
        "RAAN(deg)": 94.95849839380217,
        "Satellite Name": "Starlink Shell 1 430",
        "Satellite Number": 430,
        "Semi-Major Axis(m)": 6931778.249405717,
        "Time(s)": 800
    },
    {
        "Altitude(m)": 569639.9923791367,
        "Argument of Periapsis(deg)": 0.02823485684041019,
        "Eccentricity": 0.0,
        "Inclination(deg)": 53.0,
        "Latitude(deg)": -47.5748761615731,
        "Longitude(deg)": -133.3094027591629,
        "Mean Anomaly(deg)": 247.1369274880939,
        "RAAN(deg)": 94.9579796237247,
        "Satellite Name": "Starlink Shell 1 430",
        "Satellite Number": 430,
        "Semi-Major Axis(m)": 6931778.249405717,
        "Time(s)": 810
    },
    {
        "Altitude(m)": 569754.4987642135,
        "Argument of Periapsis(deg)": 0.028583435319921423,
        "Eccentricity": 0.0,
        "Inclination(deg)": 53.0,
        "Latitude(deg)": -47.857873559839106,
        "Longitude(deg)": -132.5244768838838,
        "Mean Anomaly(deg)": 247.76375869165068,
        "RAAN(deg)": 94.95746085364725,
        "Satellite Name": "Starlink Shell 1 430",
        "Satellite Number": 430,
        "Semi-Major Axis(m)": 6931778.249405717,
        "Time(s)": 820
    },
    {
        "Altitude(m)": 569866.3562040385,
        "Argument of Periapsis(deg)": 0.028932013799432665,
        "Eccentricity": 0.0,
        "Inclination(deg)": 53.0,
        "Latitude(deg)": -48.1348452971331,
        "Longitude(deg)": -131.73062630476957,
        "Mean Anomaly(deg)": 248.39058989520737,
        "RAAN(deg)": 94.95694208356977,
        "Satellite Name": "Starlink Shell 1 430",
        "Satellite Number": 430,
        "Semi-Major Axis(m)": 6931778.249405717,
        "Time(s)": 830
    },
    {
        "Altitude(m)": 569975.5203550569,
        "Argument of Periapsis(deg)": 0.029280592278943897,
        "Eccentricity": 0.0,
        "Inclination(deg)": 53.0,
        "Latitude(deg)": -48.40566894905404,
        "Longitude(deg)": -130.92786476782356,
        "Mean Anomaly(deg)": 249.01742109876403,
        "RAAN(deg)": 94.9564233134923,
        "Satellite Name": "Starlink Shell 1 430",
        "Satellite Number": 430,
        "Semi-Major Axis(m)": 6931778.249405717,
        "Time(s)": 840
    },
    {
        "Altitude(m)": 570081.9479209731,
        "Argument of Periapsis(deg)": 0.029629170758455132,
        "Eccentricity": 0.0,
        "Inclination(deg)": 53.0,
        "Latitude(deg)": -48.67022168029514,
        "Longitude(deg)": -130.11621700772983,
        "Mean Anomaly(deg)": 249.6442523023208,
        "RAAN(deg)": 94.95590454341482,
        "Satellite Name": "Starlink Shell 1 430",
        "Satellite Number": 430,
        "Semi-Major Axis(m)": 6931778.249405717,
        "Time(s)": 850
    },
    {
        "Altitude(m)": 570185.5966716717,
        "Argument of Periapsis(deg)": 0.02997774923796637,
        "Eccentricity": 0.0,
        "Inclination(deg)": 53.0,
        "Latitude(deg)": -48.92838041409071,
        "Longitude(deg)": -129.29572045927395,
        "Mean Anomaly(deg)": 250.2710835058775,
        "RAAN(deg)": 94.95538577333734,
        "Satellite Name": "Starlink Shell 1 430",
        "Satellite Number": 430,
        "Semi-Major Axis(m)": 6931778.249405717,
        "Time(s)": 860
    },
    {
        "Altitude(m)": 570286.4254616264,
        "Argument of Periapsis(deg)": 0.030326327717477602,
        "Eccentricity": 0.0,
        "Inclination(deg)": 53.0,
        "Latitude(deg)": -49.18002201266912,
        "Longitude(deg)": -128.46642443523984,
        "Mean Anomaly(deg)": 250.8979147094342,
        "RAAN(deg)": 94.95486700325986,
        "Satellite Name": "Starlink Shell 1 430",
        "Satellite Number": 430,
        "Semi-Major Axis(m)": 6931778.249405717,
        "Time(s)": 870
    },
    {
        "Altitude(m)": 570384.3942478657,
        "Argument of Periapsis(deg)": 0.030674906196988847,
        "Eccentricity": 0.0,
        "Inclination(deg)": 53.0,
        "Latitude(deg)": -49.42502346863014,
        "Longitude(deg)": -127.6283918095735,
        "Mean Anomaly(deg)": 251.5247459129909,
        "RAAN(deg)": 94.95434823318242,
        "Satellite Name": "Starlink Shell 1 430",
        "Satellite Number": 430,
        "Semi-Major Axis(m)": 6931778.249405717,
        "Time(s)": 880
    },
    {
        "Altitude(m)": 570479.4641074324,
        "Argument of Periapsis(deg)": 0.031023484676500086,
        "Eccentricity": 0.0,
        "Inclination(deg)": 53.0,
        "Latitude(deg)": -49.663262107096216,
        "Longitude(deg)": -126.78169899900034,
        "Mean Anomaly(deg)": 252.15157711654766,
        "RAAN(deg)": 94.95382946310494,
        "Satellite Name": "Starlink Shell 1 430",
        "Satellite Number": 430,
        "Semi-Major Axis(m)": 6931778.249405717,
        "Time(s)": 890
    },
    {
        "Altitude(m)": 570571.5972543329,
        "Argument of Periapsis(deg)": 0.03137206315601132,
        "Eccentricity": 0.0,
        "Inclination(deg)": 53.0,
        "Latitude(deg)": -49.894615798385416,
        "Longitude(deg)": -125.92643591947837,
        "Mean Anomaly(deg)": 252.77840832010435,
        "RAAN(deg)": 94.95331069302746,
        "Satellite Name": "Starlink Shell 1 430",
        "Satellite Number": 430,
        "Semi-Major Axis(m)": 6931778.249405717,
        "Time(s)": 900
    },
    {
        "Altitude(m)": 570660.757056003,
        "Argument of Periapsis(deg)": 0.03172064163552255,
        "Eccentricity": 0.0,
        "Inclination(deg)": 53.0,
        "Latitude(deg)": -50.11896318085986,
        "Longitude(deg)": -125.06270742557832,
        "Mean Anomaly(deg)": 253.40523952366107,
        "RAAN(deg)": 94.95279192294998,
        "Satellite Name": "Starlink Shell 1 430",
        "Satellite Number": 430,
        "Semi-Major Axis(m)": 6931778.249405717,
        "Time(s)": 910
    },
    {
        "Altitude(m)": 570746.9080492572,
        "Argument of Periapsis(deg)": 0.0320692201150338,
        "Eccentricity": 0.0,
        "Inclination(deg)": 53.0,
        "Latitude(deg)": -50.33618389350465,
        "Longitude(deg)": -124.19063320210827,
        "Mean Anomaly(deg)": 254.03207072721776,
        "RAAN(deg)": 94.95227315287251,
        "Satellite Name": "Starlink Shell 1 430",
        "Satellite Number": 430,
        "Semi-Major Axis(m)": 6931778.249405717,
        "Time(s)": 920
    },
    {
        "Altitude(m)": 570830.0159557122,
        "Argument of Periapsis(deg)": 0.032417798594545036,
        "Eccentricity": 0.0,
        "Inclination(deg)": 53.0,
        "Latitude(deg)": -50.54615881767993,
        "Longitude(deg)": -123.31034761581974,
        "Mean Anomaly(deg)": 254.65890193077448,
        "RAAN(deg)": 94.95175438279503,
        "Satellite Name": "Starlink Shell 1 430",
        "Satellite Number": 430,
        "Semi-Major Axis(m)": 6931778.249405717,
        "Time(s)": 930
    },
    {
        "Altitude(m)": 570910.0476967158,
        "Argument of Periapsis(deg)": 0.03276637707405627,
        "Eccentricity": 0.0,
        "Inclination(deg)": 53.0,
        "Latitude(deg)": -50.748770327376306,
        "Longitude(deg)": -122.42200103497936,
        "Mean Anomaly(deg)": 255.2857331343312,
        "RAAN(deg)": 94.95123561271758,
        "Satellite Name": "Starlink Shell 1 430",
        "Satellite Number": 430,
        "Semi-Major Axis(m)": 6931778.249405717,
        "Time(s)": 940
    }
]